CCSDS_OMM_VERS,COMMENT,CREATION_DATE,ORIGINATOR,OBJECT_NAME,OBJECT_ID,CENTER_NAME,REF_FRAME,TIME_SYSTEM,MEAN_ELEMENT_THEORY,EPOCH,MEAN_MOTION,ECCENTRICITY,INCLINATION,RA_OF_ASC_NODE,ARG_OF_PERICENTER,MEAN_ANOMALY,EPHEMERIS_TYPE,CLASSIFICATION_TYPE,NORAD_CAT_ID,ELEMENT_SET_NO,REV_AT_EPOCH,BSTAR,MEAN_MOTION_DOT,MEAN_MOTION_DDOT,SEMIMAJOR_AXIS,PERIOD,APOAPSIS,PERIAPSIS,OBJECT_TYPE,RCS_SIZE,COUNTRY_CODE,LAUNCH_DATE,SITE,DECAY_DATE,FILE,GP_ID,TLE_LINE0,TLE_LINE1,TLE_LINE2
2,GENERATED VIA SPACE-TRACK.ORG API,2016-01-05T06:53:42,18 SPCS,JCSAT 2,1990-001B,EARTH,TEME,UTC,SGP4,2016-01-05T03:15:59.413248,0.98536574,0.0064775,12.3348,45.3025,222.3937,164.7171,0,U,20402,999,7771,0.0,-5.1e-07,0,42658.299,1461.386,36556.483,36003.845,PAYLOAD,LARGE,JPN,1990-01-01,AFETR,,1976182,102561286,0 JCSAT 2,1 20402U 90001B   16005.13610432 -.00000051  00000-0  00000+0 0  9996,2 20402  12.3348  45.3025 0064775 222.3937 164.7171  0.98536574 77713
2,GENERATED VIA SPACE-TRACK.ORG API,2016-01-07T16:35:18,18 SPCS,JCSAT 2,1990-001B,EARTH,TEME,UTC,SGP4,2016-01-06T03:38:18.564864,0.98536301,0.0064732,12.3365,45.2909,222.5427,164.8106,0,U,20402,999,7774,0.0,-3e-07,0,42658.377,1461.39,36556.379,36004.106,PAYLOAD,LARGE,JPN,1990-01-01,AFETR,,1977278,102604014,0 JCSAT 2,1 20402U 90001B   16006.15160376 -.00000030 +00000-0 +00000-0 0  9994,2 20402 012.3365 045.2909 0064732 222.5427 164.8106 00.98536301077741
2,GENERATED VIA SPACE-TRACK.ORG API,2016-01-07T12:51:22,18 SPCS,JCSAT 2,1990-001B,EARTH,TEME,UTC,SGP4,2016-01-07T03:31:33.841344,0.98536116,0.0064736,12.3379,45.2791,222.5889,157.8475,0,U,20402,999,7773,0.0,-1.2e-07,0,42658.431,1461.393,36556.449,36004.142,PAYLOAD,LARGE,JPN,1990-01-01,AFETR,,1977185,102599335,0 JCSAT 2,1 20402U 90001B   16007.14691946 -.00000012  00000-0  00000+0 0  9995,2 20402  12.3379  45.2791 0064736 222.5889 157.8475  0.98536116 77735
2,GENERATED VIA SPACE-TRACK.ORG API,2016-01-09T16:43:48,18 SPCS,JCSAT 2,1990-001B,EARTH,TEME,UTC,SGP4,2016-01-08T03:25:31.427040,0.98536032,0.0064759,12.3397,45.2685,222.6036,151.0897,0,U,20402,999,7776,0.0,1e-08,0,42658.455,1461.394,36556.572,36004.068,PAYLOAD,LARGE,JPN,1990-01-01,AFETR,,1978186,102639341,0 JCSAT 2,1 20402U 90001B   16008.14272485 +.00000001 +00000-0 +00000-0 0  9997,2 20402 012.3397 045.2685 0064759 222.6036 151.0897 00.98536032077761
2,GENERATED VIA SPACE-TRACK.ORG API,2016-01-10T06:57:17,18 SPCS,JCSAT 2,1990-001B,EARTH,TEME,UTC,SGP4,2016-01-10T05:18:00.322848,0.98536181,0.0064699,12.3429,45.2448,222.8132,168.0843,0,U,20402,999,7776,0.0,1.5e-07,0,42658.412,1461.392,36556.273,36004.281,PAYLOAD,LARGE,JPN,1990-01-01,AFETR,,1978416,102649155,0 JCSAT 2,1 20402U 90001B   16010.22083707  .00000015  00000-0  00000+0 0  9990,2 20402  12.3429  45.2448 0064699 222.8132 168.0843  0.98536181 77760
2,GENERATED VIA SPACE-TRACK.ORG API,2016-01-12T15:00:28,18 SPCS,JCSAT 2,1990-001B,EARTH,TEME,UTC,SGP4,2016-01-12T08:38:19.214304,0.98536542,0.0064633,12.346,45.2197,222.9559,206.7818,0,U,20402,999,7778,0.0,4e-08,0,42658.308,1461.386,36555.886,36004.459,PAYLOAD,LARGE,JPN,1990-01-01,AFETR,,1979429,102689550,0 JCSAT 2,1 20402U 90001B   16012.35994461  .00000004  00000-0  00000+0 0  9992,2 20402  12.3460  45.2197 0064633 222.9559 206.7818  0.98536542 77783
2,GENERATED VIA SPACE-TRACK.ORG API,2016-01-14T17:10:33,18 SPCS,JCSAT 2,1990-001B,EARTH,TEME,UTC,SGP4,2016-01-13T11:10:25.701600,0.98536784,0.0064581,12.3477,45.2068,223.1112,238.843,0,U,20402,999,7781,0.0,-1.1e-07,0,42658.238,1461.383,36555.594,36004.612,PAYLOAD,LARGE,JPN,1990-01-01,AFETR,,1980270,102730982,0 JCSAT 2,1 20402U 90001B   16013.46557525 -.00000011 +00000-0 +00000-0 0  9991,2 20402 012.3477 045.2068 0064581 223.1112 238.8430 00.98536784077816
2,GENERATED VIA SPACE-TRACK.ORG API,2016-01-14T14:57:49,18 SPCS,JCSAT 2,1990-001B,EARTH,TEME,UTC,SGP4,2016-01-14T10:24:48.316320,0.98537116,0.0064513,12.3491,45.1956,223.2338,222.2298,0,U,20402,999,7780,0.0,-2.9e-07,0,42658.142,1461.378,36555.208,36004.807,PAYLOAD,LARGE,JPN,1990-01-01,AFETR,,1980194,102725699,0 JCSAT 2,1 20402U 90001B   16014.43389255 -.00000029  00000-0  00000+0 0  9990,2 20402  12.3491  45.1956 0064513 223.2338 222.2298  0.98537116 77801
2,GENERATED VIA SPACE-TRACK.ORG API,2016-01-16T15:08:30,18 SPCS,JCSAT 2,1990-001B,EARTH,TEME,UTC,SGP4,2016-01-16T10:44:22.799040,0.98537925,0.0064419,12.352,45.1723,223.3972,216.391,0,U,20402,999,7782,0.0,-7.9e-07,0,42657.909,1461.366,36554.572,36004.976,PAYLOAD,LARGE,JPN,1990-01-01,AFETR,,1981059,102763011,0 JCSAT 2,1 20402U 90001B   16016.44748610 -.00000079  00000-0  00000+0 0  9992,2 20402  12.3520  45.1723 0064419 223.3972 216.3910  0.98537925 77821
2,GENERATED VIA SPACE-TRACK.ORG API,2016-01-18T16:29:29,18 SPCS,JCSAT 2,1990-001B,EARTH,TEME,UTC,SGP4,2016-01-17T08:12:03.205728,0.98538355,0.0064395,12.3533,45.1621,223.4455,173.5716,0,U,20402,999,7785,0.0,-1.06e-06,0,42657.785,1461.359,36554.344,36004.955,PAYLOAD,LARGE,JPN,1990-01-01,AFETR,,1981980,102801886,0 JCSAT 2,1 20402U 90001B   16017.34170377 -.00000106 +00000-0 +00000-0 0  9993,2 20402 012.3533 045.1621 0064395 223.4455 173.5716 00.98538355077851
2,GENERATED VIA SPACE-TRACK.ORG API,2016-01-20T14:58:22,18 SPCS,JCSAT 2,1990-001B,EARTH,TEME,UTC,SGP4,2016-01-20T06:27:26.750304,0.98539458,0.0064144,12.3576,45.1284,223.8284,131.6849,0,U,20402,999,7786,0.0,-1.92e-06,0,42657.466,1461.343,36552.953,36005.709,PAYLOAD,LARGE,JPN,1990-01-01,AFETR,,1982755,102833449,0 JCSAT 2,1 20402U 90001B   16020.26905961 -.00000192  00000-0  00000+0 0  9997,2 20402  12.3576  45.1284 0064144 223.8284 131.6849  0.98539458 77867
2,GENERATED VIA SPACE-TRACK.ORG API,2016-01-22T16:19:08,18 SPCS,JCSAT 2,1990-001B,EARTH,TEME,UTC,SGP4,2016-01-21T08:10:40.830240,0.98539696,0.0064251,12.3592,45.116,223.673,152.0295,0,U,20402,999,7789,0.0,-2.18e-06,0,42657.398,1461.34,36553.341,36005.185,PAYLOAD,LARGE,JPN,1990-01-01,AFETR,,1983768,102877040,0 JCSAT 2,1 20402U 90001B   16021.34075035 -.00000218 +00000-0 +00000-0 0  9997,2 20402 012.3592 045.1160 0064251 223.6730 152.0295 00.98539696077890
2,GENERATED VIA SPACE-TRACK.ORG API,2016-01-22T15:00:06,18 SPCS,JCSAT 2,1990-001B,EARTH,TEME,UTC,SGP4,2016-01-22T08:53:03.050016,0.98539798,0.006425,12.3608,45.1041,223.6841,157.2119,0,U,20402,999,7788,0.0,-2.38e-06,0,42657.368,1461.338,36553.307,36005.16,PAYLOAD,LARGE,JPN,1990-01-01,AFETR,,1983691,102871781,0 JCSAT 2,1 20402U 90001B   16022.37017419 -.00000238  00000-0  00000+0 0  9994,2 20402  12.3608  45.1041 0064250 223.6841 157.2119  0.98539798 77882
2,GENERATED VIA SPACE-TRACK.ORG API,2016-01-23T15:02:19,18 SPCS,JCSAT 2,1990-001B,EARTH,TEME,UTC,SGP4,2016-01-23T09:05:40.360704,0.9854006,0.0064295,12.3623,45.0922,223.6669,155.105,0,U,20402,999,7789,0.0,-2.52e-06,0,42657.293,1461.334,36553.423,36004.893,PAYLOAD,LARGE,JPN,1990-01-01,AFETR,,1984145,102890437,0 JCSAT 2,1 20402U 90001B   16023.37893936 -.00000252  00000-0  00000+0 0  9997,2 20402  12.3623  45.0922 0064295 223.6669 155.1050  0.98540060 77899
2,GENERATED VIA SPACE-TRACK.ORG API,2016-01-25T17:00:20,18 SPCS,JCSAT 2,1990-001B,EARTH,TEME,UTC,SGP4,2016-01-24T09:35:56.944032,0.98539974,0.0064305,12.3638,45.0805,223.667,157.3203,0,U,20402,999,7792,0.0,-2.6e-06,0,42657.317,1461.335,36553.49,36004.875,PAYLOAD,LARGE,JPN,1990-01-01,AFETR,,1985102,102932750,0 JCSAT 2,1 20402U 90001B   16024.39996463 -.00000260 +00000-0 +00000-0 0  9999,2 20402 012.3638 045.0805 0064305 223.6670 157.3203 00.98539974077929
2,GENERATED VIA SPACE-TRACK.ORG API,2016-01-25T15:01:59,18 SPCS,JCSAT 2,1990-001B,EARTH,TEME,UTC,SGP4,2016-01-25T09:58:20.024256,0.98539782,0.0064276,12.3653,45.0686,223.7531,157.5049,0,U,20402,999,7791,0.0,-2.6e-06,0,42657.373,1461.338,36553.422,36005.053,PAYLOAD,LARGE,JPN,1990-01-01,AFETR,,1985021,102927512,0 JCSAT 2,1 20402U 90001B   16025.41550954 -.00000260  00000-0  00000+0 0  9993,2 20402  12.3653  45.0686 0064276 223.7531 157.5049  0.98539782 77913
2,GENERATED VIA SPACE-TRACK.ORG API,2016-01-26T16:53:52,18 SPCS,JCSAT 2,1990-001B,EARTH,TEME,UTC,SGP4,2016-01-25T14:32:33.745632,0.9853977,0.0064275,12.3657,45.0667,223.757,225.0608,0,U,20402,999,7793,0.0,-2.59e-06,0,42657.376,1461.338,36553.422,36005.061,PAYLOAD,LARGE,JPN,1990-01-01,AFETR,,1985574,102951250,0 JCSAT 2,1 20402U 90001B   16025.60594613 -.00000259 +00000-0 +00000-0 0  9993,2 20402 012.3657 045.0667 0064275 223.7570 225.0608 00.98539770077939
2,GENERATED VIA SPACE-TRACK.ORG API,2016-01-27T15:03:01,18 SPCS,JCSAT 2,1990-001B,EARTH,TEME,UTC,SGP4,2016-01-27T10:30:22.747392,0.98539285,0.0064259,12.3685,45.0456,223.8527,154.8171,0,U,20402,999,7793,0.0,-2.39e-06,0,42657.516,1461.346,36553.494,36005.268,PAYLOAD,LARGE,JPN,1990-01-01,AFETR,,1986011,102964522,0 JCSAT 2,1 20402U 90001B   16027.43776328 -.00000239  00000-0  00000+0 0  9998,2 20402  12.3685  45.0456 0064259 223.8527 154.8171  0.98539285 77936
2,GENERATED VIA SPACE-TRACK.ORG API,2016-01-29T14:57:33,18 SPCS,JCSAT 2,1990-001B,EARTH,TEME,UTC,SGP4,2016-01-29T12:14:43.084896,0.98539087,0.0064191,12.3716,45.0215,224.0479,169.8653,0,U,20402,999,7795,0.0,-1.92e-06,0,42657.573,1461.349,36553.262,36005.615,PAYLOAD,LARGE,JPN,1990-01-01,AFETR,,1986950,103002031,0 JCSAT 2,1 20402U 90001B   16029.51022089 -.00000192  00000-0  00000+0 0  9995,2 20402  12.3716  45.0215 0064191 224.0479 169.8653  0.98539087 77951
2,GENERATED VIA SPACE-TRACK.ORG API,2016-02-04T22:08:01,18 SPCS,JCSAT 2,1990-001B,EARTH,TEME,UTC,SGP4,2016-02-03T18:43:58.319040,0.98535679,0.0064099,12.3793,44.9596,224.3076,239.2294,0,U,20402,999,7800,0.0,-3.6e-07,0,42658.557,1461.399,36553.859,36006.985,PAYLOAD,LARGE,JPN,1990-01-01,AFETR,,1989800,103125947,0 JCSAT 2,1 20402U 90001B   16034.78053610 -.00000036  00000-0  00000+0 0  9991,2 20402  12.3793  44.9596 0064099 224.3076 239.2294  0.98535679 78002
